{
 "generated_at": "2026-07-07T08:23:21Z",
 "sources": [
  {
   "name": "CelesTrak",
   "url": "https://celestrak.org/NORAD/elements/",
   "license": "frei verfügbar; Attribution. Ursprünglich USSPACECOM/Space-Track."
  },
  {
   "name": "GCAT (J. McDowell, planet4589.org)",
   "url": "https://planet4589.org/space/gcat/",
   "license": "CC-BY 4.0"
  }
 ],
 "satellites": [
  {
   "norad": 43262,
   "name": "GAOFEN-1 04",
   "intl": "2018-031D",
   "group": "resource",
   "gcat": {
    "class": "C",
    "category": "IMG",
    "owner": "CNSAS",
    "state": "CN"
   },
   "omm": {
    "OBJECT_NAME": "GAOFEN-1 04",
    "OBJECT_ID": "2018-031D",
    "EPOCH": "2026-07-06T20:06:59.203872",
    "MEAN_MOTION": 14.76463971,
    "ECCENTRICITY": 0.0001648,
    "INCLINATION": 98.0513,
    "RA_OF_ASC_NODE": 250.359,
    "ARG_OF_PERICENTER": 58.6939,
    "MEAN_ANOMALY": 301.4431,
    "EPHEMERIS_TYPE": 0,
    "CLASSIFICATION_TYPE": "U",
    "NORAD_CAT_ID": 43262,
    "ELEMENT_SET_NO": 999,
    "REV_AT_EPOCH": 44558,
    "BSTAR": 0.0001017,
    "MEAN_MOTION_DOT": 0.00000656,
    "MEAN_MOTION_DDOT": 0
   }
  },
  {
   "norad": 44622,
   "name": "GAOFEN-10R",
   "intl": "2019-066A",
   "group": "resource",
   "gcat": {
    "class": null,
    "category": null,
    "owner": null,
    "state": null
   },
   "omm": {
    "OBJECT_NAME": "GAOFEN-10R",
    "OBJECT_ID": "2019-066A",
    "EPOCH": "2026-07-06T20:31:20.574336",
    "MEAN_MOTION": 14.83044514,
    "ECCENTRICITY": 0.0007148,
    "INCLINATION": 98.0505,
    "RA_OF_ASC_NODE": 141.578,
    "ARG_OF_PERICENTER": 74.4989,
    "MEAN_ANOMALY": 285.7013,
    "EPHEMERIS_TYPE": 0,
    "CLASSIFICATION_TYPE": "U",
    "NORAD_CAT_ID": 44622,
    "ELEMENT_SET_NO": 999,
    "REV_AT_EPOCH": 36529,
    "BSTAR": 0.00014202,
    "MEAN_MOTION_DOT": 0.00001101,
    "MEAN_MOTION_DDOT": 0
   }
  },
  {
   "norad": 43585,
   "name": "GAOFEN-11 01",
   "intl": "2018-063A",
   "group": "resource",
   "gcat": {
    "class": null,
    "category": null,
    "owner": null,
    "state": null
   },
   "omm": {
    "OBJECT_NAME": "GAOFEN-11 01",
    "OBJECT_ID": "2018-063A",
    "EPOCH": "2026-07-06T20:35:03.653952",
    "MEAN_MOTION": 15.55881395,
    "ECCENTRICITY": 0.0002272,
    "INCLINATION": 97.1273,
    "RA_OF_ASC_NODE": 254.6876,
    "ARG_OF_PERICENTER": 239.9765,
    "MEAN_ANOMALY": 120.1265,
    "EPHEMERIS_TYPE": 0,
    "CLASSIFICATION_TYPE": "U",
    "NORAD_CAT_ID": 43585,
    "ELEMENT_SET_NO": 999,
    "REV_AT_EPOCH": 44340,
    "BSTAR": 0.0001538,
    "MEAN_MOTION_DOT": 0.00010552,
    "MEAN_MOTION_DDOT": 0
   }
  },
  {
   "norad": 44819,
   "name": "GAOFEN-12 01",
   "intl": "2019-082A",
   "group": "resource",
   "gcat": {
    "class": null,
    "category": null,
    "owner": null,
    "state": null
   },
   "omm": {
    "OBJECT_NAME": "GAOFEN-12 01",
    "OBJECT_ID": "2019-082A",
    "EPOCH": "2026-07-06T21:11:19.960224",
    "MEAN_MOTION": 14.80474852,
    "ECCENTRICITY": 0.0001417,
    "INCLINATION": 97.8104,
    "RA_OF_ASC_NODE": 193.7426,
    "ARG_OF_PERICENTER": 52.9072,
    "MEAN_ANOMALY": 307.227,
    "EPHEMERIS_TYPE": 0,
    "CLASSIFICATION_TYPE": "U",
    "NORAD_CAT_ID": 44819,
    "ELEMENT_SET_NO": 999,
    "REV_AT_EPOCH": 35700,
    "BSTAR": 0.000051284,
    "MEAN_MOTION_DOT": 0.00000342,
    "MEAN_MOTION_DDOT": 0
   }
  },
  {
   "norad": 48079,
   "name": "GAOFEN-12 02",
   "intl": "2021-026A",
   "group": "resource",
   "gcat": {
    "class": "D",
    "category": "IMG-R",
    "owner": "ZLZB",
    "state": "CN"
   },
   "omm": {
    "OBJECT_NAME": "GAOFEN-12 02",
    "OBJECT_ID": "2021-026A",
    "EPOCH": "2026-07-06T21:30:18.534240",
    "MEAN_MOTION": 14.80311676,
    "ECCENTRICITY": 0.0005254,
    "INCLINATION": 97.9928,
    "RA_OF_ASC_NODE": 185.9966,
    "ARG_OF_PERICENTER": 154.6553,
    "MEAN_ANOMALY": 205.4918,
    "EPHEMERIS_TYPE": 0,
    "CLASSIFICATION_TYPE": "U",
    "NORAD_CAT_ID": 48079,
    "ELEMENT_SET_NO": 999,
    "REV_AT_EPOCH": 28467,
    "BSTAR": 0.00005002,
    "MEAN_MOTION_DOT": 0.00000328,
    "MEAN_MOTION_DDOT": 0
   }
  },
  {
   "norad": 52912,
   "name": "GAOFEN-12 03",
   "intl": "2022-069A",
   "group": "resource",
   "gcat": {
    "class": "D",
    "category": "IMG-R",
    "owner": "ZLZB",
    "state": "CN"
   },
   "omm": {
    "OBJECT_NAME": "GAOFEN-12 03",
    "OBJECT_ID": "2022-069A",
    "EPOCH": "2026-07-06T20:40:57.430848",
    "MEAN_MOTION": 14.80070539,
    "ECCENTRICITY": 0.0002509,
    "INCLINATION": 97.825,
    "RA_OF_ASC_NODE": 75.234,
    "ARG_OF_PERICENTER": 82.6519,
    "MEAN_ANOMALY": 277.4978,
    "EPHEMERIS_TYPE": 0,
    "CLASSIFICATION_TYPE": "U",
    "NORAD_CAT_ID": 52912,
    "ELEMENT_SET_NO": 999,
    "REV_AT_EPOCH": 21752,
    "BSTAR": 0.00023151,
    "MEAN_MOTION_DOT": 0.00001703,
    "MEAN_MOTION_DDOT": 0
   }
  },
  {
   "norad": 57654,
   "name": "GAOFEN-12 04",
   "intl": "2023-123A",
   "group": "resource",
   "gcat": {
    "class": "D",
    "category": "IMG-R",
    "owner": "ZLZB",
    "state": "CN"
   },
   "omm": {
    "OBJECT_NAME": "GAOFEN-12 04",
    "OBJECT_ID": "2023-123A",
    "EPOCH": "2026-07-06T21:06:54.400320",
    "MEAN_MOTION": 14.79764609,
    "ECCENTRICITY": 0.0003848,
    "INCLINATION": 97.9109,
    "RA_OF_ASC_NODE": 105.6056,
    "ARG_OF_PERICENTER": 67.015,
    "MEAN_ANOMALY": 293.1468,
    "EPHEMERIS_TYPE": 0,
    "CLASSIFICATION_TYPE": "U",
    "NORAD_CAT_ID": 57654,
    "ELEMENT_SET_NO": 999,
    "REV_AT_EPOCH": 15554,
    "BSTAR": 0.00012746,
    "MEAN_MOTION_DOT": 0.00000907,
    "MEAN_MOTION_DDOT": 0
   }
  },
  {
   "norad": 40118,
   "name": "GAOFEN-2",
   "intl": "2014-049A",
   "group": "resource",
   "gcat": {
    "class": "C",
    "category": "IMG",
    "owner": "CNSAS",
    "state": "CN"
   },
   "omm": {
    "OBJECT_NAME": "GAOFEN-2",
    "OBJECT_ID": "2014-049A",
    "EPOCH": "2026-07-06T20:07:18.441696",
    "MEAN_MOTION": 14.80920964,
    "ECCENTRICITY": 0.0007615,
    "INCLINATION": 98.0095,
    "RA_OF_ASC_NODE": 252.0264,
    "ARG_OF_PERICENTER": 158.9929,
    "MEAN_ANOMALY": 201.1598,
    "EPHEMERIS_TYPE": 0,
    "CLASSIFICATION_TYPE": "U",
    "NORAD_CAT_ID": 40118,
    "ELEMENT_SET_NO": 999,
    "REV_AT_EPOCH": 64214,
    "BSTAR": 0.000040295,
    "MEAN_MOTION_DOT": 0.00000258,
    "MEAN_MOTION_DDOT": 0
   }
  },
  {
   "norad": 41727,
   "name": "GAOFEN-3",
   "intl": "2016-049A",
   "group": "resource",
   "gcat": {
    "class": "C",
    "category": "IMG-R",
    "owner": "GWHYZ",
    "state": "CN"
   },
   "omm": {
    "OBJECT_NAME": "GAOFEN-3",
    "OBJECT_ID": "2016-049A",
    "EPOCH": "2026-07-06T20:33:38.697696",
    "MEAN_MOTION": 14.42217514,
    "ECCENTRICITY": 0.0001729,
    "INCLINATION": 98.4016,
    "RA_OF_ASC_NODE": 195.3456,
    "ARG_OF_PERICENTER": 91.9763,
    "MEAN_ANOMALY": 268.1625,
    "EPHEMERIS_TYPE": 0,
    "CLASSIFICATION_TYPE": "U",
    "NORAD_CAT_ID": 41727,
    "ELEMENT_SET_NO": 999,
    "REV_AT_EPOCH": 52148,
    "BSTAR": -0.000031564,
    "MEAN_MOTION_DOT": -0.00000147,
    "MEAN_MOTION_DDOT": 0
   }
  },
  {
   "norad": 49495,
   "name": "GAOFEN-3 02",
   "intl": "2021-109A",
   "group": "sar",
   "gcat": {
    "class": "C",
    "category": "IMG-R",
    "owner": "GWHYZ",
    "state": "CN"
   },
   "omm": {
    "OBJECT_NAME": "GAOFEN-3 02",
    "OBJECT_ID": "2021-109A",
    "EPOCH": "2026-07-06T21:23:00.769632",
    "MEAN_MOTION": 14.42219077,
    "ECCENTRICITY": 0.0001582,
    "INCLINATION": 98.4091,
    "RA_OF_ASC_NODE": 195.7076,
    "ARG_OF_PERICENTER": 313.2098,
    "MEAN_ANOMALY": 46.8959,
    "EPHEMERIS_TYPE": 0,
    "CLASSIFICATION_TYPE": "U",
    "NORAD_CAT_ID": 49495,
    "ELEMENT_SET_NO": 999,
    "REV_AT_EPOCH": 24315,
    "BSTAR": -0.000021082,
    "MEAN_MOTION_DOT": -0.00000113,
    "MEAN_MOTION_DDOT": 0
   }
  }
 ]
}
