GAOFEN-2                
1 40118U 14049A   26187.83840789  .00000258  00000+0  40295-4 0  9991
2 40118  98.0095 252.0264 0007615 158.9929 201.1598 14.80920964642146
GAOFEN-3                
1 41727U 16049A   26187.85669789 -.00000147  00000+0 -31564-4 0  9999
2 41727  98.4016 195.3456 0001729  91.9763 268.1625 14.42217514521489
GAOFEN-1 04             
1 43262U 18031D   26187.83818523  .00000656  00000+0  10170-3 0  9990
2 43262  98.0513 250.3590 0001648  58.6939 301.4431 14.76463971445588
GAOFEN-11 01            
1 43585U 18063A   26187.85768118  .00010552  00000+0  15380-3 0  9993
2 43585  97.1273 254.6876 0002272 239.9765 120.1265 15.55881395443400
GAOFEN-10R              
1 44622U 19066A   26187.85509924  .00001101  00000+0  14202-3 0  9990
2 44622  98.0505 141.5780 0007148  74.4989 285.7013 14.83044514365299
GAOFEN-12 01            
1 44819U 19082A   26187.88286991  .00000342  00000+0  51284-4 0  9993
2 44819  97.8104 193.7426 0001417  52.9072 307.2270 14.80474852357006
GAOFEN-12 02            
1 48079U 21026A   26187.89604785  .00000328  00000+0  50020-4 0  9993
2 48079  97.9928 185.9966 0005254 154.6553 205.4918 14.80311676284676
GAOFEN-3 02             
1 49495U 21109A   26187.89098113 -.00000113  00000+0 -21082-4 0  9990
2 49495  98.4091 195.7076 0001582 313.2098  46.8959 14.42219077243154
GAOFEN-12 03            
1 52912U 22069A   26187.86177582  .00001703  00000+0  23151-3 0  9991
2 52912  97.8250  75.2340 0002509  82.6519 277.4978 14.80070539217528
GAOFEN-12 04            
1 57654U 23123A   26187.87979630  .00000907  00000+0  12746-3 0  9999
2 57654  97.9109 105.6056 0003848  67.0150 293.1468 14.79764609155545
